{"type": "FeatureCollection", "features": [ {"type": "Feature", "properties": {"norad_id": 31091, "name": "FENGYUN 1C DEB", "group": "fengyun-1c-debris", "lat": -69.87615873597184, "lon": -3.289718976960715, "alt_km": 864.6419181153215, "timestamp": "2025-12-19T18:58:41.868583+00:00", "meta": {"OBJECT_NAME": "FENGYUN 1C DEB", "OBJECT_ID": "1999-025BGM", "EPOCH": "2025-12-18T18:29:24.179136", "MEAN_MOTION": 13.54154938, "ECCENTRICITY": 0.02904608, "INCLINATION": 99.2252, "RA_OF_ASC_NODE": 329.4286, "ARG_OF_PERICENTER": 313.7095, "MEAN_ANOMALY": 44.0311, "EPHEMERIS_TYPE": 0, "CLASSIFICATION_TYPE": "U", "NORAD_CAT_ID": 31091, "ELEMENT_SET_NO": 999, "REV_AT_EPOCH": 61721, "BSTAR": 0.00061777539, "MEAN_MOTION_DOT": 5.06e-06, "MEAN_MOTION_DDOT": 0}, "tle": {"line1": "1 31091U 99025BGM 25352.77041874  .00000506  00000+0  61778-3 0  9996", "line2": "2 31091  99.2252 329.4286 0290460 313.7095  44.0311 13.54154938617211"}}, "geometry": {"type": "Point", "coordinates": [-3.289718976960715, -69.87615873597184]}}, {"type": "Feature", "properties": {"norad_id": 31092, "name": "FENGYUN 1C DEB", "group": "fengyun-1c-debris", "lat": 77.539560326476, "lon": -19.69197323949125, "alt_km": 849.410346441733, "timestamp": "2025-12-19T18:58:41.868593+00:00", "meta": {"OBJECT_NAME": "FENGYUN 1C DEB", "OBJECT_ID": "1999-025BGN", "EPOCH": "2025-12-17T20:08:19.647456", "MEAN_MOTION": 13.46542832, "ECCENTRICITY": 0.0327337, "INCLINATION": 99.7194, "RA_OF_ASC_NODE": 107.5532, "ARG_OF_PERICENTER": 124.2222, "MEAN_ANOMALY": 239.0386, "EPHEMERIS_TYPE": 0, "CLASSIFICATION_TYPE": "U", "NORAD_CAT_ID": 31092, "ELEMENT_SET_NO": 999, "REV_AT_EPOCH": 91950, "BSTAR": 0.0011214769, "MEAN_MOTION_DOT": 8.95e-06, "MEAN_MOTION_DDOT": 0}, "tle": {"line1": "1 31092U 99025BGN 25351.83911629  .00000895  00000+0  11215-2 0  9998", "line2": "2 31092  99.7194 107.5532 0327337 124.2222 239.0386 13.46542832919502"}}, "geometry": {"type": "Point", "coordinates": [-19.69197323949125, 77.539560326476]}}, {"type": "Feature", "properties": {"norad_id": 31093, "name": "FENGYUN 1C DEB", "group": "fengyun-1c-debris", "lat": 38.01352049458952, "lon": -174.62728596408795, "alt_km": 1106.5586732447773, "timestamp": "2025-12-19T18:58:41.868603+00:00", "meta": {"OBJECT_NAME": "FENGYUN 1C DEB", "OBJECT_ID": "1999-025BGP", "EPOCH": "2025-12-19T06:36:34.033824", "MEAN_MOTION": 13.80638422, "ECCENTRICITY": 0.02083365, "INCLINATION": 98.5944, "RA_OF_ASC_NODE": 191.6924, "ARG_OF_PERICENTER": 205.4309, "MEAN_ANOMALY": 153.648, "EPHEMERIS_TYPE": 0, "CLASSIFICATION_TYPE": "U", "NORAD_CAT_ID": 31093, "ELEMENT_SET_NO": 999, "REV_AT_EPOCH": 94597, "BSTAR": 0.00030895547, "MEAN_MOTION_DOT": 3.43e-06, "MEAN_MOTION_DDOT": 0}, "tle": {"line1": "1 31093U 99025BGP 25353.27539391  .00000343  00000+0  30896-3 0  9996", "line2": "2 31093  98.5944 191.6924 0208336 205.4309 153.6480 13.80638422945972"}}, "geometry": {"type": "Point", "coordinates": [-174.62728596408795, 38.01352049458952]}}, {"type": "Feature", "properties": {"norad_id": 31094, "name": "FENGYUN 1C DEB", "group": "fengyun-1c-debris", "lat": -13.766494094701658, "lon": -136.36368692740726, "alt_km": 832.6192820668957, "timestamp": "2025-12-19T18:58:41.868625+00:00", "meta": {"OBJECT_NAME": "FENGYUN 1C DEB", "OBJECT_ID": "1999-025BGQ", "EPOCH": "2025-12-18T13:55:40.465344", "MEAN_MOTION": 14.02070479, "ECCENTRICITY": 0.01064794, "INCLINATION": 98.8566, "RA_OF_ASC_NODE": 220.2711, "ARG_OF_PERICENTER": 30.834, "MEAN_ANOMALY": 329.9022, "EPHEMERIS_TYPE": 0, "CLASSIFICATION_TYPE": "U", "NORAD_CAT_ID": 31094, "ELEMENT_SET_NO": 999, "REV_AT_EPOCH": 95701, "BSTAR": 0.001302334, "MEAN_MOTION_DOT": 2.047e-05, "MEAN_MOTION_DDOT": 0}, "tle": {"line1": "1 31094U 99025BGQ 25352.58032946  .00002047  00000+0  13023-2 0  9999", "line2": "2 31094  98.8566 220.2711 0106479  30.8340 329.9022 14.02070479957014"}}, "geometry": {"type": "Point", "coordinates": [-136.36368692740726, -13.766494094701658]}}, {"type": "Feature", "properties": {"norad_id": 31095, "name": "FENGYUN 1C DEB", "group": "fengyun-1c-debris", "lat": -1.1675230918427946, "lon": -45.33954931911357, "alt_km": 860.0827203137424, "timestamp": "2025-12-19T18:58:41.868637+00:00", "meta": {"OBJECT_NAME": "FENGYUN 1C DEB", "OBJECT_ID": "1999-025BGR", "EPOCH": "2025-12-17T03:34:34.916736", "MEAN_MOTION": 13.06670581, "ECCENTRICITY": 0.05000721, "INCLINATION": 98.5625, "RA_OF_ASC_NODE": 132.7204, "ARG_OF_PERICENTER": 181.3173, "MEAN_ANOMALY": 178.6655, "EPHEMERIS_TYPE": 0, "CLASSIFICATION_TYPE": "U", "NORAD_CAT_ID": 31095, "ELEMENT_SET_NO": 999, "REV_AT_EPOCH": 89505, "BSTAR": 0.0005656824, "MEAN_MOTION_DOT": 3.13e-06, "MEAN_MOTION_DDOT": 0}, "tle": {"line1": "1 31095U 99025BGR 25351.14901524  .00000313  00000+0  56568-3 0  9994", "line2": "2 31095  98.5625 132.7204 0500072 181.3173 178.6655 13.06670581895054"}}, "geometry": {"type": "Point", "coordinates": [-45.33954931911357, -1.1675230918427946]}}, {"type": "Feature", "properties": {"norad_id": 31097, "name": "FENGYUN 1C DEB", "group": "fengyun-1c-debris", "lat": 81.13393919657791, "lon": 27.867305718377683, "alt_km": 737.9616581230703, "timestamp": "2025-12-19T18:58:41.868647+00:00", "meta": {"OBJECT_NAME": "FENGYUN 1C DEB", "OBJECT_ID": "1999-025BGT", "EPOCH": "2025-12-17T14:03:42.624000", "MEAN_MOTION": 14.47080395, "ECCENTRICITY": 0.00154261, "INCLINATION": 98.8591, "RA_OF_ASC_NODE": 114.5858, "ARG_OF_PERICENTER": 256.8277, "MEAN_ANOMALY": 233.4008, "EPHEMERIS_TYPE": 0, "CLASSIFICATION_TYPE": "U", "NORAD_CAT_ID": 31097, "ELEMENT_SET_NO": 999, "REV_AT_EPOCH": 97108, "BSTAR": 0.0020918687, "MEAN_MOTION_DOT": 7.591e-05, "MEAN_MOTION_DDOT": 0}, "tle": {"line1": "1 31097U 99025BGT 25351.58591000  .00007591  00000+0  20919-2 0  9993", "line2": "2 31097  98.8591 114.5858 0015426 256.8277 233.4008 14.47080395971085"}}, "geometry": {"type": "Point", "coordinates": [27.867305718377683, 81.13393919657791]}}, {"type": "Feature", "properties": {"norad_id": 31098, "name": "FENGYUN 1C DEB", "group": "fengyun-1c-debris", "lat": 70.88629437022155, "lon": 85.34829444939464, "alt_km": 723.2251840783001, "timestamp": "2025-12-19T18:58:41.868657+00:00", "meta": {"OBJECT_NAME": "FENGYUN 1C DEB", "OBJECT_ID": "1999-025BGU", "EPOCH": "2025-12-18T19:28:59.221056", "MEAN_MOTION": 14.5165858, "ECCENTRICITY": 0.0015214, "INCLINATION": 98.8697, "RA_OF_ASC_NODE": 111.0981, "ARG_OF_PERICENTER": 232.7982, "MEAN_ANOMALY": 127.1824, "EPHEMERIS_TYPE": 0, "CLASSIFICATION_TYPE": "U", "NORAD_CAT_ID": 31098, "ELEMENT_SET_NO": 999, "REV_AT_EPOCH": 97045, "BSTAR": 0.0022033041, "MEAN_MOTION_DOT": 8.81e-05, "MEAN_MOTION_DDOT": 0}, "tle": {"line1": "1 31098U 99025BGU 25352.81179654  .00008810  00000+0  22033-2 0  9992", "line2": "2 31098  98.8697 111.0981 0015214 232.7982 127.1824 14.51658580970450"}}, "geometry": {"type": "Point", "coordinates": [85.34829444939464, 70.88629437022155]}}, {"type": "Feature", "properties": {"norad_id": 31099, "name": "FENGYUN 1C DEB", "group": "fengyun-1c-debris", "lat": 19.572619151411804, "lon": -116.77252867886567, "alt_km": 820.4339552667725, "timestamp": "2025-12-19T18:58:41.868667+00:00", "meta": {"OBJECT_NAME": "FENGYUN 1C DEB", "OBJECT_ID": "1999-025BGV", "EPOCH": "2025-12-19T04:28:21.757152", "MEAN_MOTION": 14.27931138, "ECCENTRICITY": 0.00625457, "INCLINATION": 98.9378, "RA_OF_ASC_NODE": 245.8168, "ARG_OF_PERICENTER": 262.4442, "MEAN_ANOMALY": 251.6638, "EPHEMERIS_TYPE": 0, "CLASSIFICATION_TYPE": "U", "NORAD_CAT_ID": 31099, "ELEMENT_SET_NO": 999, "REV_AT_EPOCH": 97563, "BSTAR": 0.00022712412, "MEAN_MOTION_DOT": 5.27e-06, "MEAN_MOTION_DDOT": 0}, "tle": {"line1": "1 31099U 99025BGV 25353.18636293  .00000527  00000+0  22712-3 0  9993", "line2": "2 31099  98.9378 245.8168 0062545 262.4442 251.6638 14.27931138975638"}}, "geometry": {"type": "Point", "coordinates": [-116.77252867886567, 19.572619151411804]}}, {"type": "Feature", "properties": {"norad_id": 31146, "name": "FENGYUN 1C DEB", "group": "fengyun-1c-debris", "lat": -54.976539982943265, "lon": 91.67246731736611, "alt_km": 801.3193297799971, "timestamp": "2025-12-19T18:58:41.868678+00:00", "meta": {"OBJECT_NAME": "FENGYUN 1C DEB", "OBJECT_ID": "1999-025BGY", "EPOCH": "2025-12-18T14:58:56.800128", "MEAN_MOTION": 14.27716295, "ECCENTRICITY": 0.02128579, "INCLINATION": 99.0422, "RA_OF_ASC_NODE": 283.5985, "ARG_OF_PERICENTER": 149.9889, "MEAN_ANOMALY": 211.3692, "EPHEMERIS_TYPE": 0, "CLASSIFICATION_TYPE": "U", "NORAD_CAT_ID": 31146, "ELEMENT_SET_NO": 999, "REV_AT_EPOCH": 96849, "BSTAR": 0.00024543248, "MEAN_MOTION_DOT": 7.19e-06, "MEAN_MOTION_DDOT": 0}, "tle": {"line1": "1 31146U 99025BGY 25352.62426852  .00000719  00000+0  24543-3 0  9999", "line2": "2 31146  99.0422 283.5985 0212857 149.9889 211.3692 14.27716295968490"}}, "geometry": {"type": "Point", "coordinates": [91.67246731736611, -54.976539982943265]}}, {"type": "Feature", "properties": {"norad_id": 31148, "name": "FENGYUN 1C DEB", "group": "fengyun-1c-debris", "lat": 76.90899144398296, "lon": -162.51690307256214, "alt_km": 677.2636012578778, "timestamp": "2025-12-19T18:58:41.868688+00:00", "meta": {"OBJECT_NAME": "FENGYUN 1C DEB", "OBJECT_ID": "1999-025BHA", "EPOCH": "2025-12-17T03:23:48.030432", "MEAN_MOTION": 14.43384812, "ECCENTRICITY": 0.01367919, "INCLINATION": 98.8663, "RA_OF_ASC_NODE": 236.8896, "ARG_OF_PERICENTER": 37.7158, "MEAN_ANOMALY": 323.3525, "EPHEMERIS_TYPE": 0, "CLASSIFICATION_TYPE": "U", "NORAD_CAT_ID": 31148, "ELEMENT_SET_NO": 999, "REV_AT_EPOCH": 97594, "BSTAR": 0.00067377616, "MEAN_MOTION_DOT": 2.495e-05, "MEAN_MOTION_DDOT": 0}, "tle": {"line1": "1 31148U 99025BHA 25351.14152813  .00002495  00000+0  67378-3 0  9996", "line2": "2 31148  98.8663 236.8896 0136791  37.7158 323.3525 14.43384812975944"}}, "geometry": {"type": "Point", "coordinates": [-162.51690307256214, 76.90899144398296]}}]}